satname,norad_id,inclination_deg,eccentricity,mean_motion_rev_per_day,perigee_km,apogee_km,l1,l2
STARLINK-1482,45773,53.0562,0.0001405,15.06424482,546.1635242202401,548.1095260808079,1 45773U 20038AV  25360.86985418 -.00004229  00000+0 -26497-3 0  9993,2 45773  53.0562 163.5164 0001405 104.8304 255.2840 15.06424482305780
STARLINK-1496,45780,53.0558,0.0001182,15.29496273,476.5067623230634,478.12739166686424,1 45780U 20038BC  25361.91671295  .01102780  00000+0  35207-1 0  9990,2 45780  53.0558 157.8397 0001182  73.4850 171.3611 15.29496273  5789
STARLINK-1497,45781,53.032,0.0003579,15.7399786,345.07730021398584,349.89150001218786,1 45781U 20038BD  25361.91671295  .00231633  00000+0  15551-2 0  9991,2 45781  53.0320  80.8576 0003579   5.9027  11.2225 15.73997860  6005
STARLINK-1510,45784,53.0188,0.0007227,16.05150709,255.38214055235585,264.9771634411527,1 45784U 20038BG  25361.85980161  .00631199  20399-3  88817-3 0  9996,2 45784  53.0188  48.2945 0007227   9.1426 350.9736 16.05150709307486
STARLINK-1513,45786,53.0543,0.0001418,15.06400892,546.2268100502424,548.1908381259527,1 45786U 20038BJ  25361.72869124  .00001614  00000+0  12719-3 0  9993,2 45786  53.0543 159.6625 0001418  88.5315 271.5836 15.06400892305915
STARLINK-1522,46027,53.0575,0.0001484,15.06390874,546.2118020783491,548.2672538318475,1 46027U 20055A   25361.51030289 -.00000040  00000+0  16214-4 0  9998,2 46027  53.0575  90.6446 0001484  91.0064 269.1095 15.06390874298006
STARLINK-1523,46028,53.0561,9.17e-05,15.0639516,546.5913360578706,547.8614477039428,1 46028U 20055B   25361.52503926  .00001393  00000+0  11239-3 0  9995,2 46028  53.0561  90.5793 0000917  91.0946 269.0148 15.06395160298028
STARLINK-1526,46029,53.0545,0.0001734,15.06391883,546.0355757322086,548.4372952396352,1 46029U 20055C   25361.51767332  .00002584  00000+0  19237-3 0  9997,2 46029  53.0545  90.6097 0001734  87.6345 272.4843 15.06391883298018
STARLINK-1555,46032,53.0552,0.000125,15.06399354,546.3478690187139,548.0792066531722,1 46032U 20055F   25361.63562212 -.00000529  00000+0 -16651-4 0  9991,2 46032  53.0552  90.0817 0001250  98.0196 262.0935 15.06399354298037
STARLINK-1556,46033,53.0549,0.0001412,15.06405105,546.2180548855586,548.1737688998764,1 46033U 20055G   25361.55083703  .00001169  00000+0  97354-4 0  9994,2 46033  53.0549  90.4619 0001412 100.3524 259.7624 15.06405105297994
STARLINK-1557,46034,53.056,0.0001126,15.06392475,546.4548242309529,548.0144179200188,1 46034U 20055H   25361.62087087 -.00001237  00000+0 -64157-4 0  9995,2 46034  53.0560  90.1472 0001126  85.5837 274.5280 15.06392475298006
STARLINK-1558,46035,53.0559,0.0001288,15.06396378,546.3306725447947,548.1146451929189,1 46035U 20055J   25361.69459666  .00000662  00000+0  63342-4 0  9993,2 46035  53.0559  89.8179 0001288  95.5931 264.5205 15.06396378298045
STARLINK-1560,46036,53.0534,0.0001204,15.06395624,546.3911561993236,548.0587833616464,1 46036U 20055K   25361.67985153 -.00000149  00000+0  88612-5 0  9996,2 46036  53.0534  89.8841 0001204  91.2905 268.8222 15.06395624298046
STARLINK-1567,46038,53.0549,0.0001239,15.06406029,546.3350315863299,548.0511283801497,1 46038U 20055M   25361.55823554  .00006134  00000+0  43023-3 0  9995,2 46038  53.0549  90.4292 0001239 103.8587 256.2540 15.06406029298019
STARLINK-1569,46039,53.0558,0.0001535,15.06396913,546.1579767088824,548.2840616207659,1 46039U 20055N   25361.63193179 -.00000739  00000+0 -30719-4 0  9994,2 46039  53.0558  90.0962 0001535  73.0755 287.0402 15.06396913298024
STARLINK-1582,46043,53.0576,0.0001478,15.06393936,546.2065740234693,548.2537125510244,1 46043U 20055S   25361.50661906 -.00000761  00000+0 -32174-4 0  9995,2 46043  53.0576  90.6609 0001478  90.7245 269.3913 15.06393936298009
STARLINK-1591,46045,53.0548,0.0001393,15.06397142,546.255615036197,548.1850195848001,1 46045U 20055U   25361.53241404  .00002028  00000+0  15499-3 0  9993,2 46045  53.0548  90.5450 0001393  99.4226 260.6921 15.06397142297997
STARLINK-1524,46047,53.0556,0.0001399,15.0638821,546.2788315073585,548.216554144411,1 46047U 20055W   25361.48542228  .00001066  00000+0  90456-4 0  9995,2 46047  53.0556  80.7568 0001399 101.9959 258.1187 15.06388210298147
STARLINK-1527,46048,53.0572,0.0001428,15.06399963,546.2227315476839,548.200611128219,1 46048U 20055X   25361.54808142 -.00000652  00000+0 -24874-4 0  9996,2 46048  53.0572  80.4758 0001428  90.0090 270.1062 15.06399963298133
STARLINK-1540,46051,53.056,0.0001702,15.06393546,546.0526408981259,548.4100362805812,1 46051U 20055AA  25361.44855757 -.00000773  00000+0 -32977-4 0  9990,2 46051  53.0560  80.9182 0001702 130.9438 229.1699 15.06393546298158
STARLINK-1541,46052,53.0561,0.0001381,15.06403737,546.2437155410362,548.156493649326,1 46052U 20055AB  25361.50016439 -.00002185  00000+0 -12784-3 0  9996,2 46052  53.0561  80.6904 0001381  88.6875 271.4272 15.06403737298124
STARLINK-1543,46053,53.0581,0.0001633,15.06398724,546.0845586391215,548.3463787553992,1 46053U 20055AC  25361.50385089 -.00001524  00000+0 -83419-4 0  9997,2 46053  53.0581  80.6714 0001633 100.1759 259.9414 15.06398724298158
STARLINK-1548,46054,53.0582,0.0001115,15.06383637,546.4895266745216,548.0338905865474,1 46054U 20055AD  25361.64393265 -.00004072  00000+0 -25475-3 0  9996,2 46054  53.0582  80.0431 0001115 101.8652 258.2462 15.06383637298179
STARLINK-1554,46055,53.0547,9.7e-05,15.0640933,546.5112069432216,547.8547190160407,1 46055U 20055AE  25361.62917292  .00007802  00000+0  54194-3 0  9999,2 46055  53.0547  80.1114 0000970 106.5979 253.5116 15.06409330298175
STARLINK-1564,46058,53.056,0.000149,15.06392021,546.2041319531663,548.2678931108994,1 46058U 20055AH  25361.50759480 -.00000390  00000+0 -72703-5 0  9997,2 46058  53.0560  81.1235 0001490  87.1909 272.9251 15.06392021298143
STARLINK-1570,46059,53.0564,0.0001351,15.06389275,546.3088096825968,548.1800477446368,1 46059U 20055AJ  25361.47068019  .00000002  00000+0  19039-4 0  9995,2 46059  53.0564  80.8277 0001351  97.5524 262.5618 15.06389275298109
STARLINK-1572,46060,53.0543,0.0001238,15.06396304,546.3655261152708,548.0802452229618,1 46060U 20055AK  25361.59967779  .00004224  00000+0  30230-3 0  9996,2 46060  53.0543  80.2423 0001238  86.9628 273.1503 15.06396304298131
STARLINK-1573,46061,53.0573,0.0001431,15.06389214,546.2535935628539,548.2356377812594,1 46061U 20055AL  25361.52965926 -.00000478  00000+0 -13178-4 0  9994,2 46061  53.0573  80.5965 0001431  98.1732 261.9419 15.06389214298150
